NORAD_CAT_ID,OBJECT_NAME,OBJECT_TYPE,EPOCH,MEAN_MOTION,ECCENTRICITY,INCLINATION,RA_OF_ASC_NODE,ARG_OF_PERICENTER,MEAN_ANOMALY,BSTAR,MEAN_MOTION_DOT,MEAN_MOTION_DDOT,TLE_LINE0,TLE_LINE1,TLE_LINE2,SEMIMAJOR_AXIS,PERIOD,APOGEE,PERIGEE,DECAYED
53034.0,STARLINK-4151,PAYLOAD,2023-11-26 22:00:00,15.08870626,0.0001286,53.2153,217.1243,90.9753,165.3984,-0.0051079,-0.00080736,0.0,0 STARLINK-4151,1 53034U 22076BA  23330.91667824 -.00080736  00000-0 -51079-2 0  9996,2 53034  53.2153 217.1243 0001286  90.9753 165.3984 15.08870626 77717,6917.787,95.436,540.541,538.762,0.0
53034.0,STARLINK-4151,PAYLOAD,2023-11-27 00:00:00,15.08858198,0.0001324,53.2153,216.7505,88.7825,260.4951,-0.0046951,-0.00074277,0.0,0 STARLINK-4151,1 53034U 22076BA  23331.00001157 -.00074277  00000-0 -46951-2 0  9994,2 53034  53.2153 216.7505 0001324  88.7825 260.4951 15.08858198  5847,6917.825,95.436,540.606,538.774,0.0
53034.0,STARLINK-4151,PAYLOAD,2023-11-27 01:38:16,15.08825004,0.000123,53.2156,216.4432,84.0503,276.0629,0.00092597,0.00014473,0.0,0 STARLINK-4151,1 53034U 22076BA  23331.06824927  .00014473  00000-0  92597-3 0  9996,2 53034  53.2156 216.4432 0001230  84.0503 276.0629 15.08825004 77736,6917.926,95.439,540.642,538.94,0.0
53034.0,STARLINK-4151,PAYLOAD,2023-11-27 22:18:18,15.08837061,0.0001402,53.2158,212.5767,83.376,276.7392,0.00060935,9.422e-05,0.0,0 STARLINK-4151,1 53034U 22076BA  23331.92937526  .00009422  00000-0  60935-3 0  9990,2 53034  53.2158 212.5767 0001402  83.3760 276.7392 15.08837061 77408,6917.889,95.438,540.724,538.784,0.0
53034.0,STARLINK-4151,PAYLOAD,2023-11-27 23:53:41,15.08854632,0.0001434,53.2164,212.28,72.2103,287.9045,0.0014701,0.00023195,0.0,0 STARLINK-4151,1 53034U 22076BA  23331.99561428  .00023195  00000-0  14701-2 0  9993,2 53034  53.2164 212.2800 0001434  72.2103 287.9045 15.08854632 77416,6917.836,95.437,540.693,538.709,0.0
53034.0,STARLINK-4151,PAYLOAD,2023-11-28 20:33:43,15.08823508,0.0001555,53.2158,208.4149,80.2603,279.8564,0.0002873,4.285e-05,0.0,0 STARLINK-4151,1 53034U 22076BA  23332.85675001  .00004285  00000-0  28730-3 0  9999,2 53034  53.2158 208.4149 0001555  80.2603 279.8564 15.08823508 78000,6917.931,95.439,540.872,538.72,0.0
53034.0,STARLINK-4151,PAYLOAD,2023-11-29 01:19:52,15.08826968,0.0001572,53.2162,207.5192,83.5641,276.553,0.0004978,7.641e-05,0.0,0 STARLINK-4151,1 53034U 22076BA  23333.05547174  .00007641  00000-0  49780-3 0  9998,2 53034  53.2162 207.5192 0001572  83.5641 276.5530 15.08826968 77571,6917.92,95.438,540.873,538.698,0.0
53034.0,STARLINK-4151,PAYLOAD,2023-11-29 18:49:06,15.08858355,0.0001276,53.2162,204.2538,66.6849,293.4277,0.00092024,0.00014395,0.0,0 STARLINK-4151,1 53034U 22076BA  23333.78410603  .00014395  00000-0  92024-3 0  9997,2 53034  53.2162 204.2538 0001276  66.6849 293.4277 15.08858355 78147,6917.824,95.436,540.572,538.807,0.0
53034.0,STARLINK-4151,PAYLOAD,2023-11-30 01:10:38,15.08886261,0.0001376,53.2158,203.0613,101.2788,258.8359,0.0016207,0.00025632,0.0,0 STARLINK-4151,1 53034U 22076BA  23334.04905639  .00025632  00000-0  16207-2 0  9999,2 53034  53.2158 203.0613 0001376 101.2788 258.8359 15.08886261 78189,6917.739,95.435,540.556,538.652,0.0
53034.0,STARLINK-4151,PAYLOAD,2023-12-01 01:01:25,15.08859916,7.77e-05,53.2152,198.6016,77.074,283.0339,0.0014556,0.00022966,0.0,0 STARLINK-4151,1 53034U 22076BA  23335.04265468  .00022966  00000-0  14556-2 0  9991,2 53034  53.2152 198.6016 0000777  77.0740 283.0339 15.08859916 78333,6917.82,95.436,540.222,539.147,0.0
53034.0,STARLINK-4151,PAYLOAD,2023-12-01 05:47:34,15.08854289,0.0001007,53.2157,197.7089,98.4696,261.641,0.0011237,0.00017648,0.0,0 STARLINK-4151,1 53034U 22076BA  23335.24137519  .00017648  00000-0  11237-2 0  9992,2 53034  53.2157 197.7089 0001007  98.4696 261.6410 15.08854289 78365,6917.837,95.437,540.398,539.005,0.0
53034.0,STARLINK-4151,PAYLOAD,2023-12-01 20:06:03,15.08838488,0.0001485,53.2153,195.0313,83.0272,277.0889,0.00062722,9.708e-05,0.0,0 STARLINK-4151,1 53034U 22076BA  23335.83753750  .00009708  00000-0  62722-3 0  9992,2 53034  53.2153 195.0313 0001485  83.0272 277.0889 15.08838488 78456,6917.885,95.438,540.777,538.723,0.0
53034.0,STARLINK-4151,PAYLOAD,2023-12-01 21:41:25,15.08852469,0.0001434,53.2156,194.7319,90.3872,269.7284,0.00026697,3.965e-05,0.0,0 STARLINK-4151,1 53034U 22076BA  23335.90377109  .00003965  00000-0  26697-3 0  9990,2 53034  53.2156 194.7319 0001434  90.3872 269.7284 15.08852469 78005,6917.842,95.437,540.699,538.715,0.0
53034.0,STARLINK-4151,PAYLOAD,2023-12-02 00:52:12,15.0885095,0.0001501,53.2156,194.1368,93.3772,266.7392,0.00063138,9.778e-05,0.0,0 STARLINK-4151,1 53034U 22076BA  23336.03625276  .00009778  00000-0  63138-3 0  9995,2 53034  53.2156 194.1368 0001501  93.3772 266.7392 15.08850950 78482,6917.847,95.437,540.75,538.674,0.0
53034.0,STARLINK-4151,PAYLOAD,2023-12-02 19:56:49,15.08843802,0.0001762,53.2159,190.5656,115.3199,244.7976,5.317e-05,5.58e-06,0.0,0 STARLINK-4151,1 53034U 22076BA  23336.83113093  .00000558  00000-0  53170-4 0  9995,2 53034  53.2159 190.5656 0001762 115.3199 244.7976 15.08843802 78608,6917.869,95.437,540.953,538.515,0.0
53034.0,STARLINK-4151,PAYLOAD,2023-12-02 21:32:12,15.08843149,0.0001286,53.216,190.2697,100.2143,259.8994,5.6294e-05,6.08e-06,0.0,0 STARLINK-4151,1 53034U 22076BA  23336.89737117  .00000608  00000-0  56294-4 0  9996,2 53034  53.2160 190.2697 0001286 100.2143 259.8994 15.08843149 78156,6917.871,95.437,540.625,538.846,0.0
53034.0,STARLINK-4151,PAYLOAD,2023-12-03 00:42:59,15.08843312,0.0001316,53.2151,189.6782,101.9999,258.114,4.4729e-05,4.24e-06,0.0,0 STARLINK-4151,1 53034U 22076BA  23337.02985108  .00000424  00000-0  44729-4 0  9993,2 53034  53.2151 189.6782 0001316 101.9999 258.1140 15.08843312 78173,6917.87,95.437,540.646,538.825,0.0
53034.0,STARLINK-4151,PAYLOAD,2023-12-03 19:47:37,15.08824265,0.0001556,53.2156,186.1065,94.2465,265.8705,-0.00020453,-3.54e-05,0.0,0 STARLINK-4151,1 53034U 22076BA  23337.82474457 -.00003540  00000-0 -20453-3 0  9992,2 53034  53.2156 186.1065 0001556  94.2465 265.8705 15.08824265 78754,6917.928,95.439,540.87,538.717,0.0
53034.0,STARLINK-4151,PAYLOAD,2023-12-04 14:52:16,15.0882818,0.0001439,53.2153,182.5425,94.8758,265.2399,8.8198e-06,-1.48e-06,0.0,0 STARLINK-4151,1 53034U 22076BA  23338.61963320 -.00000148  00000-0  88198-5 0  9994,2 53034  53.2153 182.5425 0001439  94.8758 265.2399 15.08828180 78418,6917.917,95.438,540.777,538.786,0.0
53034.0,STARLINK-4151,PAYLOAD,2023-12-05 22:39:59,15.08840093,0.0001482,53.2152,176.595,84.9218,275.1944,0.00027746,4.131e-05,0.0,0 STARLINK-4151,1 53034U 22076BA  23339.94443601  .00004131  00000-0  27746-3 0  9991,2 53034  53.2152 176.5950 0001482  84.9218 275.1944 15.08840093 78617,6917.88,95.438,540.77,538.72,0.0
53034.0,STARLINK-4151,PAYLOAD,2023-12-06 12:58:27,15.08846774,0.0001449,53.2152,173.9178,82.705,277.4107,0.00026832,3.986e-05,0.0,0 STARLINK-4151,1 53034U 22076BA  23340.54059213  .00003986  00000-0  26832-3 0  9993,2 53034  53.2152 173.9178 0001449  82.7050 277.4107 15.08846774 78701,6917.86,95.437,540.727,538.722,0.0
53034.0,STARLINK-4151,PAYLOAD,2023-12-07 12:49:13,15.08848315,0.0001485,53.2152,169.457,80.4761,279.6398,0.00015296,2.148e-05,0.0,0 STARLINK-4151,1 53034U 22076BA  23341.53418787  .00002148  00000-0  15296-3 0  9999,2 53034  53.2152 169.4570 0001485  80.4761 279.6398 15.08848315 78856,6917.855,95.437,540.747,538.693,0.0
53034.0,STARLINK-4151,PAYLOAD,2023-12-09 12:30:47,15.0884166,0.0001372,53.214,160.5367,81.3475,278.7673,8.7418e-06,-1.49e-06,0.0,0 STARLINK-4151,1 53034U 22076BA  23343.52138531 -.00000149  00000-0  87418-5 0  9993,2 53034  53.2140 160.5367 0001372  81.3475 278.7673 15.08841660 79152,6917.875,95.437,540.689,538.791,0.0
53034.0,STARLINK-4151,PAYLOAD,2023-12-09 15:41:33,15.0884671,0.0001581,53.2149,159.942,89.6057,270.5117,8.5475e-05,1.073e-05,0.0,0 STARLINK-4151,1 53034U 22076BA  23343.65386285  .00001073  00000-0  85475-4 0  9994,2 53034  53.2149 159.9420 0001581  89.6057 270.5117 15.08846710 79639,6917.86,95.437,540.819,538.631,0.0
53034.0,STARLINK-4151,PAYLOAD,2023-12-09 22:03:06,15.08844246,0.0001821,53.2152,158.75,102.3549,257.7647,4.902e-05,4.92e-06,0.0,0 STARLINK-4151,1 53034U 22076BA  23343.91882263  .00000492  00000-0  49020-4 0  9990,2 53034  53.2152 158.7500 0001821 102.3549 257.7647 15.08844246 79216,6917.867,95.437,540.992,538.473,0.0
53034.0,STARLINK-4151,PAYLOAD,2023-12-10 12:21:34,15.0884477,0.0001749,53.2152,156.074,99.9133,260.2057,6.7756e-05,7.91e-06,0.0,0 STARLINK-4151,1 53034U 22076BA  23344.51498129  .00000791  00000-0  67756-4 0  9999,2 53034  53.2152 156.0740 0001749  99.9133 260.2057 15.08844770 79308,6917.866,95.437,540.941,538.521,0.0
53034.0,STARLINK-4151,PAYLOAD,2023-12-10 17:07:43,15.08844901,0.0001719,53.2167,155.1817,104.6794,255.4389,0.00010036,1.31e-05,0.0,0 STARLINK-4151,1 53034U 22076BA  23344.71370283  .00001310  00000-0  10036-3 0  9997,2 53034  53.2167 155.1817 0001719 104.6794 255.4389 15.08844901 79796,6917.865,95.437,540.92,538.541,0.0
53034.0,STARLINK-4151,PAYLOAD,2023-12-11 18:33:54,15.08842192,0.0001589,53.2165,150.4253,95.0624,265.0549,3.366e-05,2.48e-06,0.0,0 STARLINK-4151,1 53034U 22076BA  23345.77354477  .00000248  00000-0  33660-4 0  9999,2 53034  53.2165 150.4253 0001589  95.0624 265.0549 15.08842192 79959,6917.874,95.437,540.838,538.639,0.0
53034.0,STARLINK-4151,PAYLOAD,2023-12-12 18:24:41,15.08842243,0.0001553,53.2165,145.9654,82.3939,277.723,6.0829e-05,6.8e-06,0.0,0 STARLINK-4151,1 53034U 22076BA  23346.76714436  .00000680  00000-0  60829-4 0  9991,2 53034  53.2165 145.9654 0001553  82.3939 277.7230 15.08842243 79642,6917.874,95.437,540.813,538.664,0.0
53034.0,STARLINK-4151,PAYLOAD,2023-12-13 18:15:28,15.08842009,0.0001603,53.2166,141.5054,79.767,280.3503,9.031e-05,1.15e-05,0.0,0 STARLINK-4151,1 53034U 22076BA  23347.76074410  .00001150  00000-0  90310-4 0  9994,2 53034  53.2166 141.5054 0001603  79.7670 280.3503 15.08842009 80259,6917.874,95.437,540.848,538.63,0.0
